{"type": "FeatureCollection", "features": [ {"type": "Feature", "properties": {"norad_id": 66535, "name": "STARLINK-35514", "group": "last-30-days", "lat": -40.91920840534822, "lon": -63.717811446885285, "alt_km": 416.4417258435633, "timestamp": "2025-12-13T18:50:03.172377+00:00", "meta": {"OBJECT_NAME": "STARLINK-35514", "OBJECT_ID": "2025-265V", "EPOCH": "2025-12-13T05:22:40.099872", "MEAN_MOTION": 15.50633453, "ECCENTRICITY": 0.00018804, "INCLINATION": 43.0005, "RA_OF_ASC_NODE": 51.0982, "ARG_OF_PERICENTER": 262.6011, "MEAN_ANOMALY": 97.4636, "EPHEMERIS_TYPE": 0, "CLASSIFICATION_TYPE": "U", "NORAD_CAT_ID": 66535, "ELEMENT_SET_NO": 999, "REV_AT_EPOCH": 383, "BSTAR": 0.0024871599, "MEAN_MOTION_DOT": 0.00148661, "MEAN_MOTION_DDOT": 0}, "tle": {"line1": "1 66535U 25265V   25347.22407523  .00148661  00000+0  24872-2 0  9991", "line2": "2 66535  43.0005  51.0982 0001880 262.6011  97.4636 15.50633453  3833"}}, "geometry": {"type": "Point", "coordinates": [-63.717811446885285, -40.91920840534822]}}, {"type": "Feature", "properties": {"norad_id": 66536, "name": "STARLINK-35640", "group": "last-30-days", "lat": -41.3695964382123, "lon": -61.26507005775762, "alt_km": 417.3847782338771, "timestamp": "2025-12-13T18:50:03.172387+00:00", "meta": {"OBJECT_NAME": "STARLINK-35640", "OBJECT_ID": "2025-265W", "EPOCH": "2025-12-13T05:22:11.657856", "MEAN_MOTION": 15.50659199, "ECCENTRICITY": 0.0001372, "INCLINATION": 43.0002, "RA_OF_ASC_NODE": 51.0952, "ARG_OF_PERICENTER": 180.5949, "MEAN_ANOMALY": 179.491, "EPHEMERIS_TYPE": 0, "CLASSIFICATION_TYPE": "U", "NORAD_CAT_ID": 66536, "ELEMENT_SET_NO": 999, "REV_AT_EPOCH": 383, "BSTAR": 0.0021129476, "MEAN_MOTION_DOT": 0.00125988, "MEAN_MOTION_DDOT": 0}, "tle": {"line1": "1 66536U 25265W   25347.22374604  .00125988  00000+0  21129-2 0  9994", "line2": "2 66536  43.0002  51.0952 0001372 180.5949 179.4910 15.50659199  3833"}}, "geometry": {"type": "Point", "coordinates": [-61.26507005775762, -41.3695964382123]}}, {"type": "Feature", "properties": {"norad_id": 66537, "name": "STARLINK-35582", "group": "last-30-days", "lat": -41.771125479372905, "lon": -58.75462448298272, "alt_km": 416.837196497303, "timestamp": "2025-12-13T18:50:03.172401+00:00", "meta": {"OBJECT_NAME": "STARLINK-35582", "OBJECT_ID": "2025-265X", "EPOCH": "2025-12-13T05:21:40.104576", "MEAN_MOTION": 15.50601035, "ECCENTRICITY": 0.00014328, "INCLINATION": 43.0004, "RA_OF_ASC_NODE": 51.093, "ARG_OF_PERICENTER": 268.2264, "MEAN_ANOMALY": 91.8432, "EPHEMERIS_TYPE": 0, "CLASSIFICATION_TYPE": "U", "NORAD_CAT_ID": 66537, "ELEMENT_SET_NO": 999, "REV_AT_EPOCH": 383, "BSTAR": 0.0026849954, "MEAN_MOTION_DOT": 0.00160573, "MEAN_MOTION_DDOT": 0}, "tle": {"line1": "1 66537U 25265X   25347.22338084  .00160573  00000+0  26850-2 0  9992", "line2": "2 66537  43.0004  51.0930 0001432 268.2264  91.8432 15.50601035  3835"}}, "geometry": {"type": "Point", "coordinates": [-58.75462448298272, -41.771125479372905]}}, {"type": "Feature", "properties": {"norad_id": 66538, "name": "STARLINK-35577", "group": "last-30-days", "lat": -42.05027889653324, "lon": -56.745205509599856, "alt_km": 417.70192153889184, "timestamp": "2025-12-13T18:50:03.172411+00:00", "meta": {"OBJECT_NAME": "STARLINK-35577", "OBJECT_ID": "2025-265Y", "EPOCH": "2025-12-13T00:00:07.999776", "MEAN_MOTION": 15.507032, "ECCENTRICITY": 0.00014175, "INCLINATION": 43.0006, "RA_OF_ASC_NODE": 52.3925, "ARG_OF_PERICENTER": 257.729, "MEAN_ANOMALY": 296.1667, "EPHEMERIS_TYPE": 0, "CLASSIFICATION_TYPE": "U", "NORAD_CAT_ID": 66538, "ELEMENT_SET_NO": 999, "REV_AT_EPOCH": 503, "BSTAR": -0.0025754371, "MEAN_MOTION_DOT": -0.00149245, "MEAN_MOTION_DDOT": 0}, "tle": {"line1": "1 66538U 25265Y   25347.00009259 -.00149245  00000+0 -25754-2 0  9995", "line2": "2 66538  43.0006  52.3925 0001417 257.7290 296.1667 15.50703200  5032"}}, "geometry": {"type": "Point", "coordinates": [-56.745205509599856, -42.05027889653324]}}, {"type": "Feature", "properties": {"norad_id": 66539, "name": "STARLINK-35697", "group": "last-30-days", "lat": -42.421065282504735, "lon": -53.499019814268394, "alt_km": 416.4447586150418, "timestamp": "2025-12-13T18:50:03.172421+00:00", "meta": {"OBJECT_NAME": "STARLINK-35697", "OBJECT_ID": "2025-265Z", "EPOCH": "2025-12-13T05:20:41.724096", "MEAN_MOTION": 15.5069585, "ECCENTRICITY": 0.00017066, "INCLINATION": 43.0001, "RA_OF_ASC_NODE": 51.0863, "ARG_OF_PERICENTER": 241.6545, "MEAN_ANOMALY": 118.4143, "EPHEMERIS_TYPE": 0, "CLASSIFICATION_TYPE": "U", "NORAD_CAT_ID": 66539, "ELEMENT_SET_NO": 999, "REV_AT_EPOCH": 383, "BSTAR": 0.0025208463, "MEAN_MOTION_DOT": 0.00151061, "MEAN_MOTION_DDOT": 0}, "tle": {"line1": "1 66539U 25265Z   25347.22270514  .00151061  00000+0  25208-2 0  9995", "line2": "2 66539  43.0001  51.0863 0001706 241.6545 118.4143 15.50695850  3833"}}, "geometry": {"type": "Point", "coordinates": [-53.499019814268394, -42.421065282504735]}}, {"type": "Feature", "properties": {"norad_id": 66540, "name": "STARLINK-35818", "group": "last-30-days", "lat": -42.625559598864506, "lon": -51.20943496256497, "alt_km": 416.7957832795619, "timestamp": "2025-12-13T18:50:03.172446+00:00", "meta": {"OBJECT_NAME": "STARLINK-35818", "OBJECT_ID": "2025-265AA", "EPOCH": "2025-12-13T05:20:13.302816", "MEAN_MOTION": 15.50657031, "ECCENTRICITY": 0.00015051, "INCLINATION": 43, "RA_OF_ASC_NODE": 51.0834, "ARG_OF_PERICENTER": 263.7572, "MEAN_ANOMALY": 96.3116, "EPHEMERIS_TYPE": 0, "CLASSIFICATION_TYPE": "U", "NORAD_CAT_ID": 66540, "ELEMENT_SET_NO": 999, "REV_AT_EPOCH": 383, "BSTAR": 0.0018156398, "MEAN_MOTION_DOT": 0.00107954, "MEAN_MOTION_DDOT": 0}, "tle": {"line1": "1 66540U 25265AA  25347.22237619  .00107954  00000+0  18156-2 0  9992", "line2": "2 66540  43.0000  51.0834 0001505 263.7572  96.3116 15.50657031  3837"}}, "geometry": {"type": "Point", "coordinates": [-51.20943496256497, -42.625559598864506]}}, {"type": "Feature", "properties": {"norad_id": 66541, "name": "STARLINK-35796", "group": "last-30-days", "lat": -42.13050101900202, "lon": -56.10607372209911, "alt_km": 420.7902484325741, "timestamp": "2025-12-13T18:50:03.172457+00:00", "meta": {"OBJECT_NAME": "STARLINK-35796", "OBJECT_ID": "2025-265AB", "EPOCH": "2025-12-13T05:20:16.840896", "MEAN_MOTION": 15.48919341, "ECCENTRICITY": 0.00037393, "INCLINATION": 43.0001, "RA_OF_ASC_NODE": 51.0833, "ARG_OF_PERICENTER": 213.4837, "MEAN_ANOMALY": 146.5787, "EPHEMERIS_TYPE": 0, "CLASSIFICATION_TYPE": "U", "NORAD_CAT_ID": 66541, "ELEMENT_SET_NO": 999, "REV_AT_EPOCH": 383, "BSTAR": 0.0030483948, "MEAN_MOTION_DOT": 0.00172094, "MEAN_MOTION_DDOT": 0}, "tle": {"line1": "1 66541U 25265AB  25347.22241714  .00172094  00000+0  30484-2 0  9999", "line2": "2 66541  43.0001  51.0833 0003739 213.4837 146.5787 15.48919341  3839"}}, "geometry": {"type": "Point", "coordinates": [-56.10607372209911, -42.13050101900202]}}, {"type": "Feature", "properties": {"norad_id": 66542, "name": "STARLINK-35833", "group": "last-30-days", "lat": -42.923835968831014, "lon": -45.79984633190428, "alt_km": 416.4723208985297, "timestamp": "2025-12-13T18:50:03.172466+00:00", "meta": {"OBJECT_NAME": "STARLINK-35833", "OBJECT_ID": "2025-265AC", "EPOCH": "2025-12-13T05:19:12.702720", "MEAN_MOTION": 15.50653208, "ECCENTRICITY": 0.00016874, "INCLINATION": 43.0002, "RA_OF_ASC_NODE": 51.0786, "ARG_OF_PERICENTER": 257.3217, "MEAN_ANOMALY": 102.7455, "EPHEMERIS_TYPE": 0, "CLASSIFICATION_TYPE": "U", "NORAD_CAT_ID": 66542, "ELEMENT_SET_NO": 999, "REV_AT_EPOCH": 383, "BSTAR": 0.0030020225, "MEAN_MOTION_DOT": 0.00180367, "MEAN_MOTION_DDOT": 0}, "tle": {"line1": "1 66542U 25265AC  25347.22167480  .00180367  00000+0  30020-2 0  9995", "line2": "2 66542  43.0002  51.0786 0001687 257.3217 102.7455 15.50653208  3833"}}, "geometry": {"type": "Point", "coordinates": [-45.79984633190428, -42.923835968831014]}}, {"type": "Feature", "properties": {"norad_id": 66543, "name": "STARLINK-35315", "group": "last-30-days", "lat": -42.97408037856496, "lon": -43.34307082547393, "alt_km": 416.7667791488684, "timestamp": "2025-12-13T18:50:03.172487+00:00", "meta": {"OBJECT_NAME": "STARLINK-35315", "OBJECT_ID": "2025-265AD", "EPOCH": "2025-12-13T05:18:43.099488", "MEAN_MOTION": 15.50629115, "ECCENTRICITY": 0.00016357, "INCLINATION": 43, "RA_OF_ASC_NODE": 51.0752, "ARG_OF_PERICENTER": 255.2243, "MEAN_ANOMALY": 104.8436, "EPHEMERIS_TYPE": 0, "CLASSIFICATION_TYPE": "U", "NORAD_CAT_ID": 66543, "ELEMENT_SET_NO": 999, "REV_AT_EPOCH": 383, "BSTAR": 0.0020777903, "MEAN_MOTION_DOT": 0.00123718, "MEAN_MOTION_DDOT": 0}, "tle": {"line1": "1 66543U 25265AD  25347.22133217  .00123718  00000+0  20778-2 0  9993", "line2": "2 66543  43.0000  51.0752 0001635 255.2243 104.8436 15.50629115  3836"}}, "geometry": {"type": "Point", "coordinates": [-43.34307082547393, -42.97408037856496]}}, {"type": "Feature", "properties": {"norad_id": 66544, "name": "STARLINK-35728", "group": "last-30-days", "lat": -42.96926474211288, "lon": -40.71916272765248, "alt_km": 416.83575565785577, "timestamp": "2025-12-13T18:50:03.172499+00:00", "meta": {"OBJECT_NAME": "STARLINK-35728", "OBJECT_ID": "2025-265AE", "EPOCH": "2025-12-13T05:18:13.486752", "MEAN_MOTION": 15.50625856, "ECCENTRICITY": 0.00014941, "INCLINATION": 42.9996, "RA_OF_ASC_NODE": 51.0727, "ARG_OF_PERICENTER": 254.6492, "MEAN_ANOMALY": 105.4203, "EPHEMERIS_TYPE": 0, "CLASSIFICATION_TYPE": "U", "NORAD_CAT_ID": 66544, "ELEMENT_SET_NO": 999, "REV_AT_EPOCH": 383, "BSTAR": 0.0023006695, "MEAN_MOTION_DOT": 0.00137248, "MEAN_MOTION_DDOT": 0}, "tle": {"line1": "1 66544U 25265AE  25347.22098943  .00137248  00000+0  23007-2 0  9991", "line2": "2 66544  42.9996  51.0727 0001494 254.6492 105.4203 15.50625856  3830"}}, "geometry": {"type": "Point", "coordinates": [-40.71916272765248, -42.96926474211288]}}]}